OBJECT_NAME,OBJECT_ID,EPOCH,MEAN_MOTION,ECCENTRICITY,INCLINATION,RA_OF_ASC_NODE,ARG_OF_PERICENTER,MEAN_ANOMALY,EPHEMERIS_TYPE,CLASSIFICATION_TYPE,NORAD_CAT_ID,ELEMENT_SET_NO,REV_AT_EPOCH,BSTAR,MEAN_MOTION_DOT,MEAN_MOTION_DDOT
UM5-EOSAT,2024-149CR,2026-07-10T03:52:27.402528,15.01707878,.00092391,97.6769,269.6378,49.1318,311.0706,0,U,60555,999,10366,.19523299E-3,.248E-4,0
LASARSAT,2024-247Q,2026-07-09T06:04:47.656704,15.47760337,.00065601,44.9739,138.0904,123.7678,236.3838,0,U,62391,999,8673,.55885757E-3,.29396E-3,0
CROCUBE,2024-247T,2026-07-10T04:33:02.620224,15.49924104,.00069141,44.9700,129.7539,137.1599,222.9832,0,U,62394,999,8691,.58811806E-3,.33442E-3,0
TEVEL2-4,2025-052D,2026-07-11T11:55:36.544800,15.35479077,.0003929,97.3880,88.9397,59.2750,300.8880,0,U,63213,999,7384,.31438E-3,.10763E-3,0
TEVEL2-5,2025-052E,2026-07-08T15:39:31.999680,15.35218873,.00041301,97.3873,86.0291,66.2017,293.9660,0,U,63214,999,7340,.41324257E-3,.14062E-3,0
TEVEL2-6,2025-052F,2026-07-09T18:33:36.497376,15.35215103,.00039681,97.3877,87.1376,66.9512,293.2149,0,U,63215,999,7357,.40183524E-3,.13669E-3,0
TEVEL2-1,2025-052H,2026-07-11T02:44:51.808992,15.34682944,.0004514,97.3852,88.0769,68.0772,292.0951,0,U,63217,999,7376,.34032E-3,.11367E-3,0
TEVEL2-3,2025-052J,2026-07-11T04:09:42.827040,15.34746846,.0004286,97.3859,88.1615,69.2131,290.9570,0,U,63218,999,7377,.32943E-3,.11022E-3,0
TEVEL2-2,2025-052K,2026-07-11T12:08:25.751904,15.34702342,.000452,97.3854,88.4719,67.8637,292.3086,0,U,63219,999,7382,.31633E-3,.10565E-3,0
TEVEL2-9,2025-052AD,2026-07-08T15:25:07.851072,15.32589963,.0008135,97.3915,84.9331,74.7614,285.4527,0,U,63237,999,7331,.40917582E-3,.12819E-3,0
TEVEL2-7,2025-052AE,2026-07-11T04:03:31.531680,15.32336153,.0008053,97.3917,87.3624,67.9064,292.3032,0,U,63238,999,7369,.31287E-3,.9701E-4,0
TEVEL2-8,2025-052AF,2026-07-11T04:15:44.551008,15.32321799,.0008071,97.3917,87.3470,68.8547,291.3557,0,U,63239,999,7369,.32578E-3,.10101E-3,0
FORESAIL-1 PRIME,2025-276DS,2026-07-09T19:00:48.274560,15.18908946,.00032784,97.4192,263.6509,56.5130,303.6417,0,U,66778,999,3383,.15287384E-3,.3123E-4,0
